{
  "links" : {
    "next" : "https://api.nasa.gov/neo/rest/v1/feed?start_date=2016-01-09&end_date=2016-01-09&detailed=true&api_key=t0TVs3DtDT2H8Oy2Zy8m2eVrNsAVKAexjcZXUckd",
    "prev" : "https://api.nasa.gov/neo/rest/v1/feed?start_date=2016-01-07&end_date=2016-01-07&detailed=true&api_key=t0TVs3DtDT2H8Oy2Zy8m2eVrNsAVKAexjcZXUckd",
    "self" : "https://api.nasa.gov/neo/rest/v1/feed?start_date=2016-01-08&end_date=2016-01-08&detailed=true&api_key=t0TVs3DtDT2H8Oy2Zy8m2eVrNsAVKAexjcZXUckd"
  },
  "element_count" : 8,
  "near_earth_objects" : {
    "2016-01-08" : [ {
      "links" : {
        "self" : "https://api.nasa.gov/neo/rest/v1/neo/3736496?api_key=t0TVs3DtDT2H8Oy2Zy8m2eVrNsAVKAexjcZXUckd"
      },
      "neo_reference_id" : "3736496",
      "name" : "(2015 XE261)",
      "nasa_jpl_url" : "http://ssd.jpl.nasa.gov/sbdb.cgi?sstr=3736496",
      "absolute_magnitude_h" : 24.7,
      "estimated_diameter" : {
        "kilometers" : {
          "estimated_diameter_min" : 0.0305179233,
          "estimated_diameter_max" : 0.0682401509
        },
        "meters" : {
          "estimated_diameter_min" : 30.5179232594,
          "estimated_diameter_max" : 68.2401509401
        },
        "miles" : {
          "estimated_diameter_min" : 0.0189629525,
          "estimated_diameter_max" : 0.0424024508
        },
        "feet" : {
          "estimated_diameter_min" : 100.1244233463,
          "estimated_diameter_max" : 223.8850168104
        }
      },
      "is_potentially_hazardous_asteroid" : false,
      "close_approach_data" : [ {
        "close_approach_date" : "2016-01-08",
        "epoch_date_close_approach" : 1452240000000,
        "relative_velocity" : {
          "kilometers_per_second" : "6.5198669016",
          "kilometers_per_hour" : "23471.5208457573",
          "miles_per_hour" : "14584.2902721874"
        },
        "miss_distance" : {
          "astronomical" : "0.0843471129",
          "lunar" : "32.8110275269",
          "kilometers" : "12618149",
          "miles" : "7840554"
        },
        "orbiting_body" : "Earth"
      } ],
      "orbital_data" : {
        "orbit_id" : "7",
        "orbit_determination_date" : "2017-04-06 08:29:59",
        "orbit_uncertainty" : "7",
        "minimum_orbit_intersection" : ".0753969",
        "jupiter_tisserand_invariant" : "4.210",
        "epoch_osculation" : "2458000.5",
        "eccentricity" : ".3935846932087269",
        "semi_major_axis" : "1.630744464056032",
        "inclination" : "7.926395403197072",
        "ascending_node_longitude" : "76.89807354076646",
        "orbital_period" : "760.6367355814577",
        "perihelion_distance" : ".9889084044687088",
        "perihelion_argument" : "55.61394158160399",
        "aphelion_distance" : "2.272580523643355",
        "perihelion_time" : "2458179.861684136278",
        "mean_anomaly" : "275.1103236688924",
        "mean_motion" : ".4732876853821729",
        "equinox" : "J2000"
      }
    }, {
      "links" : {
        "self" : "https://api.nasa.gov/neo/rest/v1/neo/3739702?api_key=t0TVs3DtDT2H8Oy2Zy8m2eVrNsAVKAexjcZXUckd"
      },
      "neo_reference_id" : "3739702",
      "name" : "(2016 AT131)",
      "nasa_jpl_url" : "http://ssd.jpl.nasa.gov/sbdb.cgi?sstr=3739702",
      "absolute_magnitude_h" : 27.4,
      "estimated_diameter" : {
        "kilometers" : {
          "estimated_diameter_min" : 0.0088014652,
          "estimated_diameter_max" : 0.0196806745
        },
        "meters" : {
          "estimated_diameter_min" : 8.801465209,
          "estimated_diameter_max" : 19.6806745089
        },
        "miles" : {
          "estimated_diameter_min" : 0.0054689752,
          "estimated_diameter_max" : 0.0122290004
        },
        "feet" : {
          "estimated_diameter_min" : 28.8761991163,
          "estimated_diameter_max" : 64.5691441559
        }
      },
      "is_potentially_hazardous_asteroid" : false,
      "close_approach_data" : [ {
        "close_approach_date" : "2016-01-08",
        "epoch_date_close_approach" : 1452240000000,
        "relative_velocity" : {
          "kilometers_per_second" : "6.1488474785",
          "kilometers_per_hour" : "22135.8509227392",
          "miles_per_hour" : "13754.3569247432"
        },
        "miss_distance" : {
          "astronomical" : "0.0183177174",
          "lunar" : "7.1255922318",
          "kilometers" : "2740291.75",
          "miles" : "1702738.25"
        },
        "orbiting_body" : "Earth"
      } ],
      "orbital_data" : {
        "orbit_id" : "9",
        "orbit_determination_date" : "2017-04-06 08:29:14",
        "orbit_uncertainty" : "7",
        "minimum_orbit_intersection" : ".0192988",
        "jupiter_tisserand_invariant" : "5.184",
        "epoch_osculation" : "2458000.5",
        "eccentricity" : ".2235713124757872",
        "semi_major_axis" : "1.225243059647129",
        "inclination" : "7.738779990535011",
        "ascending_node_longitude" : "292.6020554972933",
        "orbital_period" : "495.3723973363016",
        "perihelion_distance" : ".9513138606999709",
        "perihelion_argument" : "133.2532144697286",
        "aphelion_distance" : "1.499172258594286",
        "perihelion_time" : "2457854.851411910735",
        "mean_anomaly" : "105.8466155847172",
        "mean_motion" : ".7267259983313138",
        "equinox" : "J2000"
      }
    }, {
      "links" : {
        "self" : "https://api.nasa.gov/neo/rest/v1/neo/3740100?api_key=t0TVs3DtDT2H8Oy2Zy8m2eVrNsAVKAexjcZXUckd"
      },
      "neo_reference_id" : "3740100",
      "name" : "(2016 AD166)",
      "nasa_jpl_url" : "http://ssd.jpl.nasa.gov/sbdb.cgi?sstr=3740100",
      "absolute_magnitude_h" : 23.6,
      "estimated_diameter" : {
        "kilometers" : {
          "estimated_diameter_min" : 0.0506471459,
          "estimated_diameter_max" : 0.1132504611
        },
        "meters" : {
          "estimated_diameter_min" : 50.6471458835,
          "estimated_diameter_max" : 113.2504610618
        },
        "miles" : {
          "estimated_diameter_min" : 0.0314706677,
          "estimated_diameter_max" : 0.0703705522
        },
        "feet" : {
          "estimated_diameter_min" : 166.1651821003,
          "estimated_diameter_max" : 371.5566426699
        }
      },
      "is_potentially_hazardous_asteroid" : false,
      "close_approach_data" : [ {
        "close_approach_date" : "2016-01-08",
        "epoch_date_close_approach" : 1452240000000,
        "relative_velocity" : {
          "kilometers_per_second" : "14.9960195283",
          "kilometers_per_hour" : "53985.6703019005",
          "miles_per_hour" : "33544.596082867"
        },
        "miss_distance" : {
          "astronomical" : "0.0351998925",
          "lunar" : "13.6927576065",
          "kilometers" : "5265829",
          "miles" : "3272034.5"
        },
        "orbiting_body" : "Earth"
      } ],
      "orbital_data" : {
        "orbit_id" : "7",
        "orbit_determination_date" : "2017-08-10 06:19:31",
        "orbit_uncertainty" : "7",
        "minimum_orbit_intersection" : ".0208566",
        "jupiter_tisserand_invariant" : "4.075",
        "epoch_osculation" : "2458000.5",
        "eccentricity" : ".5692852089199345",
        "semi_major_axis" : "1.650320594600473",
        "inclination" : "5.275016786756227",
        "ascending_node_longitude" : "96.44539282158806",
        "orbital_period" : "774.3742549370917",
        "perihelion_distance" : ".7108174901184721",
        "perihelion_argument" : "297.4143175467926",
        "aphelion_distance" : "2.589823699082473",
        "perihelion_time" : "2458124.726335395986",
        "mean_anomaly" : "302.2482340322794",
        "mean_motion" : ".4648914884563737",
        "equinox" : "J2000"
      }
    } ]
  }
}